STARLINK-32618          
1 62045U 24216P   26062.02113402  .00025714  00000+0  94070-3 0  9992
2 62045  42.9930 294.1673 0001212  74.3274 285.7711 15.27579954 72858
STARLINK-32598          
1 62046U 24216Q   26062.03640201  .00034552  00000+0  12583-2 0  9994
2 62046  42.9987 293.4230 0000724 238.3919 121.6862 15.27603636 72868
STARLINK-32630          
1 62047U 24216R   26062.03172793  .00033098  00000+0  12064-2 0  9999
2 62047  42.9926 301.1698 0000295  67.1718 292.9165 15.27593863 72773
STARLINK-32599          
1 62048U 24216S   26062.03557403  .00032273  00000+0  11770-2 0  9992
2 62048  43.0048 301.1931 0001992 255.4882 104.5749 15.27583817 72774
STARLINK-32473          
1 62049U 24216T   26062.01213566  .00030352  00000+0  11075-2 0  9994
2 62049  42.9928 294.0986 0000587  88.2895 271.8024 15.27591865 71691
STARLINK-32492          
1 62050U 24216U   26062.07526413  .00012384  00000+0  45871-3 0  9997
2 62050  42.9985 300.6323 0001127 279.1739  80.8985 15.27586553 72787
STARLINK-32496          
1 62051U 24216V   26062.04585443  .00021761  00000+0  79761-3 0  9997
2 62051  43.0027 301.2732 0001386 265.4753  94.5940 15.27594676 72776
STARLINK-32495          
1 62052U 24216W   26062.05727104  .00021614  00000+0  79234-3 0  9993
2 62052  43.0026 300.4981 0002266 254.2379 105.8222 15.27592036 72789
STARLINK-32494          
1 62053U 24216X   26062.08297043  .00030259  00000+0  11042-2 0  9998
2 62053  43.0001 300.6914 0001478 263.9096  96.1587 15.27590870 72788
STARLINK-32408          
1 62054U 24216Y   26062.07365987  .00032077  00000+0  11697-2 0  9997
2 62054  43.0022 293.6992 0001526 274.5186  85.5492 15.27591480 72876
STARLINK-32571          
1 62055U 24216Z   26062.03253866  .00044278  00000+0  16082-2 0  9995
2 62055  43.0034 293.3889 0002131 259.7996 100.2616 15.27594423 72962
STARLINK-11465 [DTC]    
1 62057U 24217A   26062.11452021  .00273802  00000+0  21784-2 0  9993
2 62057  53.1567 103.4652 0001590 124.8262 235.2906 15.69849839 74145
STARLINK-11426 [DTC]    
1 62058U 24217B   26062.10961410  .00255007  00000+0  20346-2 0  9990
2 62058  53.1566 103.4321 0000434 140.8835 219.2214 15.69840191 74087
STARLINK-11454 [DTC]    
1 62059U 24217C   26061.50726037  .00152823  00000+0  12417-2 0  9990
2 62059  53.1568 106.7985 0001466  57.2632 302.8527 15.69738185 74045
STARLINK-11473 [DTC]    
1 62060U 24217D   26061.58074627  .00149217  00000+0  12131-2 0  9997
2 62060  53.1569 106.5487 0002887  34.4106 325.7098 15.69734848 74054
STARLINK-11429 [DTC]    
1 62061U 24217E   26061.50235552  .00163135  00000+0  13235-2 0  9997
2 62061  53.1563 106.7645 0001405  67.9193 292.1974 15.69737885 74042
